start=new Date('2023-06-23T00:00:00.000Z').valueOf();
sats=[{"SITE":"AFWTR","OBJECT_ID":"2023-014BA","MEAN_MOTION":"14.98329210","TLE_LINE2":"2 55439  69.9997  84.7279 0002989 270.1943  89.8873 14.98329210 21597","ECCENTRICITY":"0.00029890","FILE":"3939465","MEAN_ANOMALY":"89.8873","EPOCH":"2023-06-22T01:58:14.844864","CENTER_NAME":"EARTH","ARG_OF_PERICENTER":"270.1943","MEAN_MOTION_DDOT":"0.0000000000000","OBJECT_TYPE":"PAYLOAD","EPHEMERIS_TYPE":"0","RCS_SIZE":"LARGE","BSTAR":"-0.00001381200000","INCLINATION":"69.9997","MEAN_ELEMENT_THEORY":"SGP4","APOAPSIS":"574.138","MEAN_MOTION_DOT":"-0.00000258","COUNTRY_CODE":"US","TIME_SYSTEM":"UTC","PERIAPSIS":"569.983","GP_ID":"234446687","REV_AT_EPOCH":"2159","LAUNCH_DATE":"2023-01-31","NORAD_CAT_ID":"55439","OBJECT_NAME":"STARLINK-5634","SEMIMAJOR_AXIS":"6950.195","PERIOD":"96.107","RA_OF_ASC_NODE":"84.7279","DECAY_DATE":null,"TLE_LINE1":"1 55439U 23014BA  23173.08211626 -.00000258  00000-0 -13812-4 0  9994","ELEMENT_SET_NO":"999","REF_FRAME":"TEME","CLASSIFICATION_TYPE":"U"},{"APOAPSIS":"560.165","MEAN_MOTION_DOT":"-0.00000765","TIME_SYSTEM":"UTC","COUNTRY_CODE":"US","PERIAPSIS":"557.989","GP_ID":"234460999","REV_AT_EPOCH":"2168","LAUNCH_DATE":"2023-02-02","OBJECT_NAME":"STARLINK-5699","NORAD_CAT_ID":"55449","SEMIMAJOR_AXIS":"6937.212","PERIOD":"95.838","RA_OF_ASC_NODE":"310.9981","TLE_LINE1":"1 55449U 23015A   23173.73558322 -.00000765  00000-0 -41537-4 0  9993","DECAY_DATE":null,"ELEMENT_SET_NO":"999","REF_FRAME":"TEME","CLASSIFICATION_TYPE":"U","SITE":"AFETR","OBJECT_ID":"2023-015A","MEAN_MOTION":"15.02537429","TLE_LINE2":"2 55449  43.0029 310.9981 0001568 272.9894  87.0769 15.02537429 21681","FILE":"3940044","ECCENTRICITY":"0.00015680","MEAN_ANOMALY":"87.0769","EPOCH":"2023-06-22T17:39:14.390208","CENTER_NAME":"EARTH","MEAN_MOTION_DDOT":"0.0000000000000","ARG_OF_PERICENTER":"272.9894","EPHEMERIS_TYPE":"0","OBJECT_TYPE":"PAYLOAD","RCS_SIZE":"LARGE","BSTAR":"-0.00004153700000","INCLINATION":"43.0029","MEAN_ELEMENT_THEORY":"SGP4"},{"OBJECT_NAME":"STARLINK-5686","NORAD_CAT_ID":"55450","LAUNCH_DATE":"2023-02-02","REV_AT_EPOCH":"2150","GP_ID":"234460535","PERIAPSIS":"557.799","COUNTRY_CODE":"US","TIME_SYSTEM":"UTC","MEAN_MOTION_DOT":"0.00000336","APOAPSIS":"560.348","CLASSIFICATION_TYPE":"U","REF_FRAME":"TEME","TLE_LINE1":"1 55450U 23015B   23173.73890858  .00000336  00000-0  39954-4 0  9990","DECAY_DATE":null,"ELEMENT_SET_NO":"999","RA_OF_ASC_NODE":"311.0252","PERIOD":"95.838","SEMIMAJOR_AXIS":"6937.208","CENTER_NAME":"EARTH","EPOCH":"2023-06-22T17:44:01.701312","MEAN_ANOMALY":"92.7756","ECCENTRICITY":"0.00018370","FILE":"3940046","TLE_LINE2":"2 55450  43.0038 311.0252 0001837 267.2876  92.7756 15.02538615 21500","OBJECT_ID":"2023-015B","MEAN_MOTION":"15.02538615","SITE":"AFETR","MEAN_ELEMENT_THEORY":"SGP4","INCLINATION":"43.0038","BSTAR":"0.00003995400000","RCS_SIZE":"LARGE","OBJECT_TYPE":"PAYLOAD","EPHEMERIS_TYPE":"0","MEAN_MOTION_DDOT":"0.0000000000000","ARG_OF_PERICENTER":"267.2876"},{"CLASSIFICATION_TYPE":"U","RA_OF_ASC_NODE":"312.7804","PERIOD":"95.838","REF_FRAME":"TEME","TLE_LINE1":"1 55451U 23015C   23173.39986559  .00000912  00000-0  82607-4 0  9990","ELEMENT_SET_NO":"999","DECAY_DATE":null,"SEMIMAJOR_AXIS":"6937.222","OBJECT_NAME":"STARLINK-5656","NORAD_CAT_ID":"55451","LAUNCH_DATE":"2023-02-02","PERIAPSIS":"558.015","TIME_SYSTEM":"UTC","COUNTRY_CODE":"US","REV_AT_EPOCH":"2163","GP_ID":"234454137","APOAPSIS":"560.158","MEAN_MOTION_DOT":"0.00000912","INCLINATION":"43.0035","BSTAR":"0.00008260700000","MEAN_ELEMENT_THEORY":"SGP4","RCS_SIZE":"LARGE","OBJECT_TYPE":"PAYLOAD","EPHEMERIS_TYPE":"0","ARG_OF_PERICENTER":"275.4952","MEAN_MOTION_DDOT":"0.0000000000000","CENTER_NAME":"EARTH","EPOCH":"2023-06-22T09:35:48.386976","MEAN_ANOMALY":"84.5714","MEAN_MOTION":"15.02534380","OBJECT_ID":"2023-015C","SITE":"AFETR","FILE":"3939755","ECCENTRICITY":"0.00015450","TLE_LINE2":"2 55451  43.0035 312.7804 0001545 275.4952  84.5714 15.02534380 21633"},{"LAUNCH_DATE":"2023-02-02","NORAD_CAT_ID":"55452","OBJECT_NAME":"STARLINK-5683","GP_ID":"234461042","REV_AT_EPOCH":"2168","COUNTRY_CODE":"US","TIME_SYSTEM":"UTC","PERIAPSIS":"558.059","MEAN_MOTION_DOT":"0.00000470","APOAPSIS":"560.104","CLASSIFICATION_TYPE":"U","TLE_LINE1":"1 55452U 23015D   23173.72670284  .00000470  00000-0  49873-4 0  9990","ELEMENT_SET_NO":"999","DECAY_DATE":null,"REF_FRAME":"TEME","PERIOD":"95.838","RA_OF_ASC_NODE":"310.9312","SEMIMAJOR_AXIS":"6937.216","EPOCH":"2023-06-22T17:26:27.125376","CENTER_NAME":"EARTH","MEAN_ANOMALY":"91.6826","TLE_LINE2":"2 55452  43.0042 310.9312 0001474 268.3847  91.6826 15.02536043 21687","FILE":"3940046","ECCENTRICITY":"0.00014740","SITE":"AFETR","OBJECT_ID":"2023-015D","MEAN_MOTION":"15.02536043","MEAN_ELEMENT_THEORY":"SGP4","BSTAR":"0.00004987300000","INCLINATION":"43.0042","RCS_SIZE":"LARGE","EPHEMERIS_TYPE":"0","OBJECT_TYPE":"PAYLOAD","MEAN_MOTION_DDOT":"0.0000000000000","ARG_OF_PERICENTER":"268.3847"},{"FILE":"3940047","ECCENTRICITY":"0.00023200","TLE_LINE2":"2 55453  43.0056 310.5526 0002320 262.5983  97.4596 15.02752803 21697","MEAN_MOTION":"15.02752803","OBJECT_ID":"2023-015E","SITE":"AFETR","MEAN_ANOMALY":"97.4596","CENTER_NAME":"EARTH","EPOCH":"2023-06-22T18:58:40.489824","MEAN_MOTION_DDOT":"0.0000000000000","ARG_OF_PERICENTER":"262.5983","OBJECT_TYPE":"PAYLOAD","EPHEMERIS_TYPE":"0","RCS_SIZE":"LARGE","MEAN_ELEMENT_THEORY":"SGP4","INCLINATION":"43.0056","BSTAR":"0.00205490000000","MEAN_MOTION_DOT":"0.00027826","APOAPSIS":"560.024","REV_AT_EPOCH":"2169","GP_ID":"234461053","PERIAPSIS":"556.805","TIME_SYSTEM":"UTC","COUNTRY_CODE":"US","NORAD_CAT_ID":"55453","OBJECT_NAME":"STARLINK-5684","LAUNCH_DATE":"2023-02-02","SEMIMAJOR_AXIS":"6936.549","REF_FRAME":"TEME","TLE_LINE1":"1 55453U 23015E   23173.79074641  .00027826  00000-0  20549-2 0  9994","DECAY_DATE":null,"ELEMENT_SET_NO":"999","RA_OF_ASC_NODE":"310.5526","PERIOD":"95.824","CLASSIFICATION_TYPE":"U"},{"MEAN_ANOMALY":"79.7715","CENTER_NAME":"EARTH","EPOCH":"2023-06-22T02:52:06.921984","ECCENTRICITY":"0.00012740","FILE":"3939758","TLE_LINE2":"2 55454  43.0023 314.1122 0001274 280.2983  79.7715 15.02532762 21593","MEAN_MOTION":"15.02532762","OBJECT_ID":"2023-015F","SITE":"AFETR","RCS_SIZE":"LARGE","MEAN_ELEMENT_THEORY":"SGP4","INCLINATION":"43.0023","BSTAR":"0.00000371740000","ARG_OF_PERICENTER":"280.2983","MEAN_MOTION_DDOT":"0.0000000000000","OBJECT_TYPE":"PAYLOAD","EPHEMERIS_TYPE":"0","NORAD_CAT_ID":"55454","OBJECT_NAME":"STARLINK-5636","LAUNCH_DATE":"2023-02-02","MEAN_MOTION_DOT":"-0.00000153","APOAPSIS":"559.975","REV_AT_EPOCH":"2159","GP_ID":"234454181","PERIAPSIS":"558.208","TIME_SYSTEM":"UTC","COUNTRY_CODE":"US","REF_FRAME":"TEME","TLE_LINE1":"1 55454U 23015F   23173.11952456 -.00000153  00000-0  37174-5 0  9990","ELEMENT_SET_NO":"999","DECAY_DATE":null,"RA_OF_ASC_NODE":"314.1122","PERIOD":"95.838","CLASSIFICATION_TYPE":"U","SEMIMAJOR_AXIS":"6937.226"},{"SEMIMAJOR_AXIS":"6937.222","CLASSIFICATION_TYPE":"U","PERIOD":"95.838","RA_OF_ASC_NODE":"312.7636","ELEMENT_SET_NO":"999","TLE_LINE1":"1 55455U 23015G   23173.39764712 -.00001484  00000-0 -94826-4 0  9992","DECAY_DATE":null,"REF_FRAME":"TEME","COUNTRY_CODE":"US","TIME_SYSTEM":"UTC","PERIAPSIS":"557.991","GP_ID":"234454201","REV_AT_EPOCH":"2163","APOAPSIS":"560.183","MEAN_MOTION_DOT":"-0.00001484","LAUNCH_DATE":"2023-02-02","NORAD_CAT_ID":"55455","OBJECT_NAME":"STARLINK-5680","EPHEMERIS_TYPE":"0","OBJECT_TYPE":"PAYLOAD","ARG_OF_PERICENTER":"269.9907","MEAN_MOTION_DDOT":"0.0000000000000","BSTAR":"-0.00009482600000","INCLINATION":"43.0048","MEAN_ELEMENT_THEORY":"SGP4","RCS_SIZE":"LARGE","SITE":"AFETR","OBJECT_ID":"2023-015G","MEAN_MOTION":"15.02534101","TLE_LINE2":"2 55455  43.0048 312.7636 0001580 269.9907  90.0754 15.02534101 21638","ECCENTRICITY":"0.00015800","FILE":"3939771","EPOCH":"2023-06-22T09:32:36.711168","CENTER_NAME":"EARTH","MEAN_ANOMALY":"90.0754"},{"OBJECT_TYPE":"PAYLOAD","EPHEMERIS_TYPE":"0","MEAN_MOTION_DDOT":"0.0000000000000","ARG_OF_PERICENTER":"271.1725","BSTAR":"0.00000118620000","INCLINATION":"43.0043","MEAN_ELEMENT_THEORY":"SGP4","RCS_SIZE":"LARGE","SITE":"AFETR","MEAN_MOTION":"15.02537265","OBJECT_ID":"2023-015H","TLE_LINE2":"2 55456  43.0043 310.5120 0001441 271.1725  88.8952 15.02537265 21513","ECCENTRICITY":"0.00014410","FILE":"3940051","EPOCH":"2023-06-22T18:50:59.459424","CENTER_NAME":"EARTH","MEAN_ANOMALY":"88.8952","SEMIMAJOR_AXIS":"6937.213","CLASSIFICATION_TYPE":"U","PERIOD":"95.838","RA_OF_ASC_NODE":"310.5120","TLE_LINE1":"1 55456U 23015H   23173.78541041 -.00000188  00000-0  11862-5 0  9993","ELEMENT_SET_NO":"999","DECAY_DATE":null,"REF_FRAME":"TEME","COUNTRY_CODE":"US","TIME_SYSTEM":"UTC","PERIAPSIS":"558.078","GP_ID":"234461116","REV_AT_EPOCH":"2151","APOAPSIS":"560.077","MEAN_MOTION_DOT":"-0.00000188","LAUNCH_DATE":"2023-02-02","NORAD_CAT_ID":"55456","OBJECT_NAME":"STARLINK-5058"},{"OBJECT_NAME":"STARLINK-5682","NORAD_CAT_ID":"55457","LAUNCH_DATE":"2023-02-02","PERIAPSIS":"557.934","COUNTRY_CODE":"US","TIME_SYSTEM":"UTC","REV_AT_EPOCH":"2163","GP_ID":"234454228","APOAPSIS":"560.254","MEAN_MOTION_DOT":"-0.00000714","CLASSIFICATION_TYPE":"U","RA_OF_ASC_NODE":"312.6954","PERIOD":"95.838","REF_FRAME":"TEME","TLE_LINE1":"1 55457U 23015J   23173.38876815 -.00000714  00000-0 -37781-4 0  9993","DECAY_DATE":null,"ELEMENT_SET_NO":"999","SEMIMAJOR_AXIS":"6937.229","CENTER_NAME":"EARTH","EPOCH":"2023-06-22T09:19:49.568160","MEAN_ANOMALY":"91.3433","MEAN_MOTION":"15.02532076","OBJECT_ID":"2023-015J","SITE":"AFETR","ECCENTRICITY":"0.00016720","FILE":"3939760","TLE_LINE2":"2 55457  43.0045 312.6954 0001672 268.7218  91.3433 15.02532076 21630","INCLINATION":"43.0045","BSTAR":"-0.00003778100000","MEAN_ELEMENT_THEORY":"SGP4","RCS_SIZE":"LARGE","EPHEMERIS_TYPE":"0","OBJECT_TYPE":"PAYLOAD","ARG_OF_PERICENTER":"268.7218","MEAN_MOTION_DDOT":"0.0000000000000"}];
